QIANFAN-25              
1 61558U 24185G   26003.28802814  .00000709  00000+0  42489-3 0  9994
2 61558  88.9787  75.7543 0008006 235.4368 124.6059 14.05929447 72539
QIANFAN-26              
1 61559U 24185H   26003.24491911  .00000135  00000+0  12199-3 0  9991
2 61559  88.9798  77.4337 0003855 318.6828  41.4046 13.77824847 71632
QIANFAN-27              
1 61560U 24185J   26003.27073802  .00001106  00000+0  44566-3 0  9993
2 61560  88.9790  74.4226 0006884 202.3303 157.7593 14.27365894 73236
QIANFAN-28              
1 61561U 24185K   26003.24221172  .00001632  00000+0  65147-3 0  9998
2 61561  88.9808  74.4308 0006408 200.6096 159.4841 14.28087468 73245
QIANFAN-29              
1 61562U 24185L   26003.29118707  .00000265  00000+0  39130-3 0  9997
2 61562  88.9775  79.0876 0009330 359.5184   0.5956 13.51020559 70703
QIANFAN-30              
1 61563U 24185M   26003.28237173  .00000278  00000+0  41841-3 0  9992
2 61563  88.9796  78.6222 0006553 347.0786  13.0195 13.49995960 70978
QIANFAN-31              
1 61564U 24185N   26003.27167670  .00000190  00000+0  24662-3 0  9991
2 61564  88.9779  78.3910 0005702 341.2328  18.8616 13.57975892 71089
QIANFAN-32              
1 61565U 24185P   26003.23891512  .00000288  00000+0  42964-3 0  9990
2 61565  88.9838  78.7671 0009254  13.7605 346.3797 13.50743832 70942
